satname,norad_id,inclination_deg,eccentricity,mean_motion_rev_per_day,perigee_km,apogee_km,l1,l2
STARLINK-1564,46058,53.1616,0.0001277,15.30185609,474.38286014164805,476.1332172345283,1 46058U 20055AH  26152.93901871 -.00000671  00000+0 -10552-4 0  9991,2 46058  53.1616  83.0389 0001277  96.0510 264.0637 15.30185609321963
STARLINK-1570,46059,53.1596,0.0001224,15.31713581,469.8612136814954,471.53780885945343,1 46059U 20055AJ  26154.09253540  .00003856  00000+0  13591-3 0  9995,2 46059  53.1596  76.6623 0001224 138.1981 221.9114 15.31713581322119
STARLINK-1572,46060,53.1604,0.000139,15.3019766,474.2694393376223,476.17467315525846,1 46060U 20055AK  26154.09568069  .00001944  00000+0  77740-4 0  9995,2 46060  53.1604  77.4086 0001390 132.0995 228.0124 15.30197660322117
STARLINK-1573,46061,53.1601,0.0001377,15.31700074,469.79668430363927,471.68286496737346,1 46061U 20055AL  26153.09980378  .00000282  00000+0  20871-4 0  9993,2 46061  53.1601  81.2462 0001377  72.4631 287.6520 15.31700074322004
STARLINK-1577,46063,53.161,0.0001279,15.31716679,469.8143114370605,471.5662414543749,1 46063U 20055AN  26152.21424828  .00010101  00000+0  33666-3 0  9997,2 46063  53.1610  85.3698 0001279 108.3510 251.7631 15.31716679321864
STARLINK-1583,46064,53.1627,0.0001285,15.31705713,469.84288661734263,471.60304362837906,1 46064U 20055AP  26153.07656050  .00005040  00000+0  17402-3 0  9993,2 46064  53.1627  81.8592 0001285  90.0702 270.0447 15.31705713321983
STARLINK-1536,46070,53.1608,0.0001368,15.31699765,469.80376927973066,471.6776222172866,1 46070U 20055AV  26153.07785001  .00002749  00000+0  10032-3 0  9994,2 46070  53.1608  69.2434 0001368  82.0950 278.0206 15.31699765322163
STARLINK-1542,46073,53.1635,0.0001493,15.3172279,469.64953307117503,471.694587456569,1 46073U 20055AY  26153.03695863  .00006830  00000+0  23150-3 0  9999,2 46073  53.1635  72.3976 0001493  81.8033 278.3138 15.31722790322106
STARLINK-1549,46074,53.0505,0.0003647,15.28961186,476.41567456795656,481.4172093485204,1 46074U 20055AZ  26154.22866834  .00047975  00000+0  16841-2 0  9993,2 46074  53.0505  63.9828 0003647 100.0331 260.1080 15.28961186322310
STARLINK-1551,46075,53.1589,0.0001089,15.30214254,474.42618446937104,475.91883528062226,1 46075U 20055BA  26152.01555313  .00005228  00000+0  18843-3 0  9996,2 46075  53.1589  74.0228 0001089 102.4901 257.6222 15.30214254321990
STARLINK-1552,46076,53.1606,0.0001249,15.31703544,469.87400734922903,471.5848541836349,1 46076U 20055BB  26154.22934353  .00010037  00000+0  33472-3 0  9996,2 46076  53.1606  63.4019 0001249  68.5827 291.5308 15.31703544322324
STARLINK-1559,46077,53.0247,0.0002235,15.37570261,451.7699249262887,454.823575812703,1 46077U 20055BC  26151.97087342  .00055356  00000+0  14792-2 0  9999,2 46077  53.0247  43.8150 0002235  83.6696 276.4560 15.37570261322361
STARLINK-1566,46079,53.1608,0.0001352,15.31716172,469.76582610721834,471.6177494114272,1 46079U 20055BE  26152.14594625  .00008949  00000+0  29965-3 0  9993,2 46079  53.1608  72.9486 0001352 107.8889 252.2260 15.31716172322021
STARLINK-1568,46080,53.0598,0.0003408,15.53709043,403.59587766710047,408.2198826574195,1 46080U 20055BF  26153.79766413  .00047779  00000+0  73658-3 0  9995,2 46080  53.0598 344.6508 0003408  67.3837 292.7533 15.53709043323397
STARLINK-1578,46082,53.1606,0.0001382,15.31707686,469.7705721210268,471.6635953897767,1 46082U 20055BH  26152.21559112  .00000455  00000+0  26425-4 0  9990,2 46082  53.1606  73.1428 0001382  96.8905 263.2254 15.31707686322026
STARLINK-1579,46083,53.1609,8.78e-05,15.31721048,470.0759270599683,471.2785788427864,1 46083U 20055BJ  26152.20188266  .00011914  00000+0  39479-3 0  9992,2 46083  53.1609  72.7421 0000878  82.8095 277.3006 15.31721048322021
STARLINK-1622,46128,53.0147,0.0007243,15.83173333,316.6206038457076,326.32565908214565,1 46128U 20057M   26154.83335647  .00133373  00000+0  59996-3 0  9992,2 46128  53.0147 156.2757 0007243  43.4735 118.6115 15.83173333  6048
STARLINK-1623,46129,53.0405,0.000622,15.73732836,344.05565691336597,352.423269233429,1 46129U 20057N   26154.30099170  .00119513  00000+0  82396-3 0  9993,2 46129  53.0405 196.8267 0006220  15.5794 344.5414 15.73732836320310
STARLINK-1596,46141,53.0338,0.0007111,15.5872218,386.5404633373728,396.16803379108023,1 46141U 20057AA  26154.28111837  .00099941  00000+0  12639-2 0  9993,2 46141  53.0338 178.9143 0007111  14.2001 345.9209 15.58722180320568
STARLINK-1597,46142,53.0405,0.0004328,15.73726555,345.346176961154,351.16854391955076,1 46142U 20057AB  26154.83335647  .00019006  00000+0  13639-3 0  9998,2 46142  53.0405 233.9194 0004328  20.0444 252.9997 15.73726555  5967
STARLINK-1606,46144,53.0325,0.0008136,15.89161871,299.1944026369483,310.0686035451781,1 46144U 20057AD  26154.83335647  .00472984  94624-4  16165-2 0  9994,2 46144  53.0325 187.3831 0008136   3.0077 142.9913 15.89161871  5949
STARLINK-1608,46146,53.1585,0.0003974,15.35585163,456.46580084115067,461.900102738834,1 46146U 20057AF  26154.55699566  .00054361  00000+0  15486-2 0  9998,2 46146  53.1585 269.3075 0003974 332.1581  27.9209 15.35585163319349
STARLINK-1667,46155,53.0109,0.0007817,15.88320606,301.76524665489524,312.21677578763865,1 46155U 20057AQ  26154.83335647  .00347665  00000+0  11856-2 0  9995,2 46155  53.0109 155.6296 0007817  45.7885  59.0823 15.88320606  5949
STARLINK-1545,46156,53.0383,0.0006967,15.81764292,320.7808413680232,330.1216212095005,1 46156U 20057AR  26154.83335647  .00163705  00000+0  78319-3 0  9995,2 46156  53.0383 191.7444 0006967 350.5788 175.7540 15.81764292  5997
STARLINK-1595,46159,53.0415,0.0004677,15.71490706,351.4869459519705,357.7847816887879,1 46159U 20057AU  26154.49347837  .00105740  00000+0  80408-3 0  9991,2 46159  53.0415 238.2933 0004677   7.7452 352.3636 15.71490706321008
STARLINK-1598,46160,53.0436,2.65e-05,15.71270602,355.0861663975711,355.44303668245266,1 46160U 20057AV  26154.46737726  .00095780  00000+0  73674-3 0  9999,2 46160  53.0436 224.5746 0000265 259.7001 100.3986 15.71270602321180
STARLINK-1626,46167,53.0403,0.0003706,15.71373998,352.473938417751,357.46451675363824,1 46167U 20057BC  26154.52410017  .00094928  00000+0  72697-3 0  9991,2 46167  53.0403 233.7965 0003706   1.1844 358.9182 15.71373998319811
STARLINK-1633,46171,53.0331,0.0006114,15.79402413,328.0300533329364,336.2353711370579,1 46171U 20057BG  26154.83335647  .00238604  00000+0  12600-2 0  9993,2 46171  53.0331 193.5725 0006114 334.6204 168.5064 15.79402413  6037
